IRIDIUM 119             
1 42959U 17061E   25081.44530944  .00000027  00000+0  25435-5 0  9995
2 42959  86.4009 213.9779 0002216  88.6913 271.4537 14.34215772390065
IRIDIUM 107             
1 42960U 17061F   25081.60387403  .00000053  00000+0  11727-4 0  9992
2 42960  86.4009 213.9304 0001892  78.5849 281.5559 14.34213357390092
IRIDIUM 132             
1 42961U 17061G   25081.61020770  .00001426  00000+0  50205-3 0  9993
2 42961  86.4007 213.9101 0002025  90.3011 269.8417 14.34215608390091
IRIDIUM 136             
1 42962U 17061H   25081.64192448  .00001591  00000+0  56103-3 0  9995
2 42962  86.4007 213.9007 0002103  82.7869 277.3566 14.34213734390110
IRIDIUM 139             
1 42963U 17061J   25081.36919607  .00000208  00000+0  67124-4 0  9999
2 42963  86.4009 214.0698 0001815  84.0185 276.1218 14.34214305390088
IRIDIUM 125             
1 42964U 17061K   25081.63558603  .00000092  00000+0  25906-4 0  9998
2 42964  86.4012 214.0113 0002513  83.1687 276.9795 14.34215418390138
IRIDIUM 135             
1 43070U 17083A   25081.60971241  .00000137  00000+0  41802-4 0  9998
2 43070  86.4015 150.8001 0002235 101.2235 258.9212 14.34216075379428
IRIDIUM 138             
1 43071U 17083B   25081.56531497  .00000529  00000+0  18167-3 0  9991
2 43071  86.3999 150.5007 0002874  94.6818 265.4706 14.34215384379404
